store_name,address,Latitude,Longitude,district,district_en
라이브보울,서울 강남구 역삼동 642-16,37.5009488,127.0355183,강남구,gangnam_gu
마치래빗 강남점,서울 강남구 역삼동 826-37,37.4953995,127.030406,강남구,gangnam_gu
리밍교대점,서울 서초구 서초동 1576-1,37.4912525,127.0135923,서초구,seocho_gu
웍스 50 덮밥전문점,서울 강남구 청담동 119-11,37.5246327,127.0479644,강남구,gangnam_gu
양재오제섞어,서울 강남구 논현동 108,37.5184523,127.03803,강남구,gangnam_gu
봉추찜닭,서울 서초구 서초동 1574-6,37.4922413,127.0132113,서초구,seocho_gu
한식의품격강남,서울 강남구 논현동 138-19,37.5101673,127.0256168,강남구,gangnam_gu
초록밭샐러드&그릭요거트,서울 강남구 삼성동 140-3,37.5067648,127.0480846,강남구,gangnam_gu
한식밥상 강남점,서울 강남구 논현동 224-10,37.5107394,127.0352163,강남구,gangnam_gu
까르보마마,서울 서초구 양재동 313-5,37.4712011,127.0400583,서초구,seocho_gu
앤샐러드,서울 강남구 역삼동 626-30,37.5037234,127.033337,강남구,gangnam_gu
상아김밥-본점,서울 서초구 잠원동 35-1,37.5128107,127.0177,서초구,seocho_gu
미스꼬레아김치볶음밥,서울 강남구 대치동 989,37.4986375,127.0614624,강남구,gangnam_gu
흥미면옥,서울 서초구 방배동 773-7,37.4946981,126.9895932,서초구,seocho_gu
37.5-서래마을점,서울 서초구 반포동 106-8,37.4988601,126.9974725,서초구,seocho_gu
강릉엄지네꼬막집-양재점,서울 서초구 양재동 276-10,37.4763011,127.0449692,서초구,seocho_gu
퍼남사이곤,서울 강남구 논현동 114-14,37.5170999,127.0363716,강남구,gangnam_gu
홍짜장-방배점,서울 서초구 방배동 911-1,37.4827038,126.9954039,서초구,seocho_gu
겐조라멘,서울 서초구 서초동 1303-35,37.5028472,127.0245444,서초구,seocho_gu
ZAL돼지,서울 서초구 양재동 263-16,37.4761602,127.0425861,서초구,seocho_gu
와우곱창,서울 강남구 논현동 145-16,37.5092145,127.0239805,강남구,gangnam_gu
서병장 부대찌개 교대점,서울 서초구 서초동 1660-27,37.4922602,127.0158853,서초구,seocho_gu
정 한뿌리죽 키친 서초점,서울 서초구 서초동 1680-1,37.4962832,127.0204008,서초구,seocho_gu
한뿌리죽 키친 삼성점,서울 강남구 삼성동 144-14,37.5080135,127.0553957,강남구,gangnam_gu
한뿌리죽 서초점,서울 서초구 서초동 1680-1,37.4962832,127.0204008,서초구,seocho_gu
부거부거,서울 강남구 역삼동 642-16,37.5009488,127.0355183,강남구,gangnam_gu
한정남의 샤오차이,서울 강남구 역삼동 656-33,37.5068872,127.0391807,강남구,gangnam_gu
우시라멘,서울 강남구 개포동 1237-8,37.4782439,127.0466635,강남구,gangnam_gu
생선물은고양이,서울 강남구 논현동 191-3,37.5085429,127.0322469,강남구,gangnam_gu
카페시벳 신림점,서울 관악구 신림동 1636-28,37.4810295,126.928229,관악구,gwanak_gu
크로플덕오리아가씨 서울대입구역점,서울 관악구 봉천동 10-41,37.4889432,126.9588981,관악구,gwanak_gu
정우보쌈,서울 강남구 논현동 225-6,37.5105414,127.0359456,강남구,gangnam_gu
막불감동,서울 관악구 신림동 1433-60,37.4842936,126.9281634,관악구,gwanak_gu
타코랑,서울 관악구 봉천동 924-36,37.4832807,126.9439466,관악구,gwanak_gu
재치백작,서울 관악구 봉천동 969-7,37.4881789,126.9317974,관악구,gwanak_gu
153테이블,서울 강남구 논현동 226-7,37.5099615,127.0351746,강남구,gangnam_gu
태리로제떡볶이 봉천점,서울 관악구 봉천동 1605-7,37.4779207,126.954102,관악구,gwanak_gu
어서오소LA갈비찜,서울 관악구 신림동 1419-2,37.486492,126.9307103,관악구,gwanak_gu
설미당,서울 관악구 봉천동 20-1,37.4858065,126.9576196,관악구,gwanak_gu
쭝일아찌 빨강떡볶이,서울 관악구 봉천동 951-5,37.4858963,126.9388595,관악구,gwanak_gu
사천마라탕,서울 관악구 봉천동 865-2,37.4792787,126.9508493,관악구,gwanak_gu
카페5,서울 관악구 봉천동 1708,37.4845264,126.9428948,관악구,gwanak_gu
샐러드식당 관악봉천점,서울 관악구 봉천동 15-50,37.4865525,126.9582699,관악구,gwanak_gu
바이통타이 봉천직영점(젠),서울 관악구 봉천동 15-5,37.4870189,126.9593039,관악구,gwanak_gu
백순대본가새맛 군자점,서울 광진구 군자동 360-20,37.5485676,127.07022,광진구,gwangjin_gu
금강에프앤비주식회사,서울 광진구 구의동 671,37.5454994,127.0887779,광진구,gwangjin_gu
금강에프앤비주식회사,서울 광진구 구의동 671,37.5454994,127.0887779,광진구,gwangjin_gu
달팽이부엌,서울 광진구 자양동 602-6,37.531469,127.0765,광진구,gwangjin_gu
이사장푸드(뚝배기집),서울 광진구 중곡동 129-42,37.5561625,127.0859688,광진구,gwangjin_gu
건대장터국밥,서울 광진구 화양동 12-42,37.5441826,127.0700472,광진구,gwangjin_gu
130마라탕,서울 광진구 자양동 608-21,37.5327013,127.0758253,광진구,gwangjin_gu
한식밥상 건대점,서울 광진구 화양동 46-9,37.5424073,127.0670644,광진구,gwangjin_gu
기절초풍물닭갈비,서울 광진구 자양동 617-25,37.5330086,127.0801674,광진구,gwangjin_gu
OPTION 떡볶이,서울 광진구 화양동 496-10,37.545975,127.0760178,광진구,gwangjin_gu
청년고기장수 구의점,서울 광진구 구의동 250-44,37.5422657,127.0847468,광진구,gwangjin_gu
서소문순두부보쌈,서울 광진구 화양동 42-29,37.5436838,127.0651587,광진구,gwangjin_gu
한독대 김치찜,서울 광진구 중곡동 39-65,37.5623839,127.0837669,광진구,gwangjin_gu
(주)비케이에프,서울 광진구 중곡동 39-51,37.561961,127.0833611,광진구,gwangjin_gu
넌부대난김밥,서울 광진구 구의동 200-1,37.5413415,127.0951373,광진구,gwangjin_gu
할머니가래떡볶이 광진자양점,서울 광진구 자양동 652-33,37.5313017,127.0823641,광진구,gwangjin_gu
맛찌네(맛있는찌개),서울 광진구 화양동 49-6,37.5421346,127.0656909,광진구,gwangjin_gu
밥은,서울 서대문구 홍은동 401-16,37.5808364,126.9255556,서대문구,seodaemun_gu
천농탕,서울 서대문구 홍제동 96-5,37.5846504,126.9481676,서대문구,seodaemun_gu
크로플덕 오리아가씨 신촌점,서울 서대문구 대현동 110-69,37.5589642,126.941774,서대문구,seodaemun_gu
테이스트오브비엣,서울 마포구 서교동 457-25,37.5574759,126.9140014,마포구,mapo_gu
히어로 카츠&소바,서울 관악구 봉천동 970-32,37.4890185,126.9295925,관악구,gwanak_gu
폼나는BAB,서울 서초구 서초동 1476-11,37.4819882,127.0103194,서초구,seocho_gu
규니왕타코 이대점,서울 서대문구 대현동 101-22,37.5571036,126.9431168,서대문구,seodaemun_gu
팔도부침나라,서울 광진구 중곡동 221-9,37.5633625,127.0815528,광진구,gwangjin_gu
무교동 가마솥 왕족발,서울 광진구 자양동 44-2,37.5364865,127.0648626,광진구,gwangjin_gu
흥부왕족발,서울 광진구 중곡동 241-1,37.5636385,127.0801832,광진구,gwangjin_gu
매운콩불,서울 서초구 방배동 821-12,37.4896966,126.9872427,서초구,seocho_gu
진전복삼계탕 논현직영점,서울 강남구 논현동 83-10,37.5163609,127.0337404,강남구,gangnam_gu
동해원,서울 서대문구 충정로3가 30-10,37.5619156,126.9616713,서대문구,seodaemun_gu
신미불닭발,서울 서대문구 창천동 5-34,37.5585989,126.9394141,서대문구,seodaemun_gu
우동야마이루식 관악점,서울 관악구 봉천동 1717-3,37.4875956,126.9599089,관악구,gwanak_gu
수려한상 도곡점,서울 강남구 도곡동 425-5,37.4820809,127.0436192,강남구,gangnam_gu
겐코쇼쿠도 문정역점,서울 송파구 문정동 651,37.4855846,127.1225635,송파구,songpa_gu
천수냉면,서울 동작구 노량진동 210-8,37.5117418,126.9455481,동작구,dongjak_gu
산야초 닭한마리,서울 송파구 방이동 169-10,37.5130159,127.1191931,송파구,songpa_gu
도로시파스타,서울 송파구 방이동 159-22,37.5116526,127.1188981,송파구,songpa_gu
고기혁명 마포점,서울 마포구 망원동 438-22,37.5589049,126.9000444,마포구,mapo_gu
갈매기의 꿈,서울 성동구 도선동 185-77,37.5635922,127.0330075,성동구,seongdong_gu
배가네 목포집,서울 강남구 신사동 514,37.5173293,127.0209793,강남구,gangnam_gu
독도쭈꾸미,서울 송파구 풍납동 478,37.5369086,127.1219405,송파구,songpa_gu
뚝섬해물탕,서울 성동구 성수동2가 566-20,37.5373342,127.0556948,성동구,seongdong_gu
밥향기,서울 송파구 가락동 77-4,37.4957234,127.1221502,송파구,songpa_gu
신참치,서울 송파구 방이동 51-2,37.5152322,127.1146774,송파구,songpa_gu
차차네김볶,서울 성동구 행당동 318-28,37.5585567,127.0336069,성동구,seongdong_gu
파스타어때 송파점,서울 송파구 방이동 62-8,37.5134354,127.1087038,송파구,songpa_gu
함흥순대국,서울 성동구 금호동1가 1764-1,37.5507442,127.0259178,성동구,seongdong_gu
호야네족발보쌈,서울 성동구 하왕십리동 966-37,37.5617774,127.0328336,성동구,seongdong_gu
갈비찜과물회,서울 송파구 잠실동 218-4,37.5085545,127.082951,송파구,songpa_gu
골목식당포차,서울 송파구 송파동 146-1,37.5066204,127.1163537,송파구,songpa_gu
담아내다,서울 송파구 송파동 143-2,37.5071807,127.116107,송파구,songpa_gu
유명집 안동찜닭.닭도리탕,서울 송파구 가락동 130,37.4942105,127.1255319,송파구,songpa_gu
샤크로플,서울 송파구 가락동 141-4,37.4947525,127.126708,송파구,songpa_gu
송주불냉면,서울 송파구 가락동 12-5,37.501481,127.1260622,송파구,songpa_gu
제비파스타&리조또 송파점,서울 송파구 송파동 143-2,37.5071807,127.116107,송파구,songpa_gu
공드리 미역진국 밥한상&순두부,서울 송파구 잠실동 176-2,37.5109128,127.0793034,송파구,songpa_gu
쉐프의 육미,서울 동작구 상도동 323-25,37.4985818,126.9290381,동작구,dongjak_gu
맛없으면 환불해주는 김치찜 동작점,서울 동작구 상도동 314-16,37.4996193,126.9325042,동작구,dongjak_gu
청담한우육회&육회비빔밥,서울 동작구 사당동 139-43,37.4874677,126.9812272,동작구,dongjak_gu
마라농장,서울 동작구 노량진동 233-6,37.5097798,126.9403587,동작구,dongjak_gu
애플하우스,서울 동작구 사당동 138-4,37.4862602,126.9806359,동작구,dongjak_gu
신나족발,서울 동작구 대방동 23,37.5121909,126.9321846,동작구,dongjak_gu
곱창의전설 노량진점,서울 동작구 노량진동 119-161,37.5114092,126.9447253,동작구,dongjak_gu
본설렁탕 문정역점,서울 송파구 문정동 643-1,37.4855846,127.1225635,송파구,songpa_gu
최가부엌,서울 송파구 오금동 45-4,37.503755,127.1269016,송파구,songpa_gu
럭키갈비찜,서울 동작구 사당동 150-28,37.4847622,126.9791523,동작구,dongjak_gu
포들 보라매점,서울 동작구 신대방동 708,37.4912491,126.9247975,동작구,dongjak_gu
BJ냉면,서울 관악구 봉천동 729-32,37.4911673,126.9250989,관악구,gwanak_gu
꽃찬찜닭 왕십리점,서울 성동구 행당동 133-7,37.558771,127.037157,성동구,seongdong_gu
닥엔돈스 왕십리점,서울 성동구 행당동 319-29,37.5580648,127.0348799,성동구,seongdong_gu
도담죽,서울 동작구 상도1동 355-2,37.5001684,126.9516927,동작구,dongjak_gu
경성덮밥,서울 동작구 사당동 1051-41,37.4763771,126.9723514,동작구,dongjak_gu
대창을덮다호르몬동전문점,서울 성동구 성수동1가 8-26,37.5469006,127.0466993,성동구,seongdong_gu
로컬릿,서울 성동구 옥수동 201-1,37.5409307,127.014767,성동구,seongdong_gu
알촌한양대점,서울 성동구 행당동 19-112,37.5586337,127.0401633,성동구,seongdong_gu
효자동설렁탕,서울 동작구 상도동 504-3,37.4946909,126.9570845,동작구,dongjak_gu
밀숲노량진역점,서울 동작구 노량진동 123-8,37.5113373,126.9448679,동작구,dongjak_gu
뉴욕야시장 한양대점,서울 성동구 행당동 19-7,37.5592924,127.0398973,성동구,seongdong_gu
제주올레포차 2호점,서울 성동구 성수동1가 13-106,37.5490684,127.0485543,성동구,seongdong_gu
떡이랑한과랑,서울 성동구 성수동1가 13-104,37.5489175,127.048284,성동구,seongdong_gu
해양,서울 성동구 금호동4가 235,37.5461582,127.0240435,성동구,seongdong_gu
서박사부대찌개,서울 성동구 금호동2가 510-2,37.5520121,127.0195019,성동구,seongdong_gu
오늘더만족,서울 성동구 금호동3가 811,37.5484462,127.0208977,성동구,seongdong_gu
순희냉면,서울 광진구 자양동 4-7,37.5385345,127.0671905,광진구,gwangjin_gu
엄마손키친 (브로스치킨),서울 성동구 행당동 19-54,37.5594649,127.0405472,성동구,seongdong_gu
청년감자탕,서울 성동구 행당동 19-48,37.5599259,127.0405236,성동구,seongdong_gu
하노이별 노량진점,서울 동작구 노량진동 40-43,37.5130711,126.9380411,동작구,dongjak_gu
고기반햄반김치찌개 성동구,서울 성동구 금호동3가 1302,37.5484669,127.0183424,성동구,seongdong_gu
잇샐러드 성수점,서울 성동구 성수동2가 300-8,37.5458402,127.0535211,성동구,seongdong_gu
후후마켓,서울 동작구 대방동 380-122,37.5031703,126.9235644,동작구,dongjak_gu
이고집쭈꾸미,서울 동작구 신대방동 361-57,37.4977125,126.9244968,동작구,dongjak_gu
천국이네,서울 마포구 연남동 567-6,37.5599559,126.9215081,마포구,mapo_gu
구름계란덮밥,서울 마포구 도화동 536,37.5425213,126.9473562,마포구,mapo_gu
리김밥 신촌점,서울 마포구 노고산동 57-50,37.5541234,126.9347524,마포구,mapo_gu
만나칼국수,서울 용산구 청파동2가 35-6,37.5454284,126.9693645,용산구,yongsan_gu
소홍우 마라탕,서울 마포구 서교동 394-14,37.5490235,126.9164627,마포구,mapo_gu
무침프로젝트,서울 마포구 망원동 411-22,37.5563181,126.906023,마포구,mapo_gu
친구친구,서울 성동구 도선동 69,37.5643927,127.0349365,성동구,seongdong_gu
용담애,서울 송파구 거여동 597,37.484307,127.1386345,송파구,songpa_gu
죠스떡볶이상암디지털큐브점,서울 마포구 상암동 1647,37.5761672,126.8892159,마포구,mapo_gu
홍콩반점0410 상암디엠씨점,서울 마포구 상암동 1597,37.5813283,126.888557,마포구,mapo_gu
고수찜닭 용산,서울 용산구 청파동3가 24-64,37.5443733,126.9689203,용산구,yongsan_gu
구복만두,서울 용산구 남영동 3-4,37.5450925,126.9732271,용산구,yongsan_gu
치꼬뱅 마포,서울 마포구 망원동 475-46,37.5599907,126.9031136,마포구,mapo_gu
온샐러드앤포케,서울 마포구 성산동 591-6,37.5652664,126.9028609,마포구,mapo_gu
장수한방족발,서울 마포구 망원동 486-36,37.5570508,126.9060211,마포구,mapo_gu
술에빠진노가리,서울 성동구 행당동 298-40,37.5600487,127.0330738,성동구,seongdong_gu
신안동장,서울 마포구 연남동 487-366,37.5613059,126.9183246,마포구,mapo_gu
고려왕족발.보쌈,서울 마포구 망원동 414-108,37.5560107,126.9063372,마포구,mapo_gu
포도원삼계탕,서울 마포구 대흥동 250-2,37.5473062,126.9417759,마포구,mapo_gu
삼대,서울 마포구 망원동 378-6,37.5549355,126.910412,마포구,mapo_gu
신림원조김밥,서울 관악구 신림동 1602-1,37.4816482,126.9279631,관악구,gwanak_gu
청년찌개,서울 마포구 성산동 293-2,37.5581647,126.9095721,마포구,mapo_gu
마부마라탕엔마라샹궈,서울 용산구 후암동 116-27,37.5501609,126.975497,용산구,yongsan_gu
봉대박파스타앤찜닭,서울 마포구 서교동 486,37.5537933,126.9236946,마포구,mapo_gu
떡볶이는튀김빨,서울 마포구 공덕동 111-359,37.5478163,126.9599318,마포구,mapo_gu
전설의등갈비앤김치찜,서울 마포구 서교동 358-95,37.5529191,126.9233355,마포구,mapo_gu
벨로스테이,서울 마포구 상수동 341-3,37.545953,126.9224612,마포구,mapo_gu
최신족발,서울 광진구 화양동 34-3,37.5436276,127.0693523,광진구,gwangjin_gu
할매보쌈부대찌개,서울 용산구 원효로2가 91-11,37.5353001,126.9605214,용산구,yongsan_gu
월간미식,서울 용산구 용문동 28-20,37.5371745,126.9603309,용산구,yongsan_gu
호화반점,서울 용산구 원효로2가 27-10,37.5363735,126.9638111,용산구,yongsan_gu
마녀찜닭,서울 용산구 보광동 246-2,37.5293386,126.9982403,용산구,yongsan_gu
창성옥,서울 용산구 용문동 25-16,37.5363759,126.9604152,용산구,yongsan_gu
천하뼈다귀,서울 용산구 보광동 81-1,37.5259616,127.0008645,용산구,yongsan_gu
빙고코다리 아구찜,서울 용산구 보광동 217-16,37.5261724,126.9983127,용산구,yongsan_gu
가정식 백반,서울 용산구 청파동3가 111-59,37.5445488,126.9669482,용산구,yongsan_gu
이촌삼계탕,서울 용산구 이촌동 302-64,37.5200744,126.9676856,용산구,yongsan_gu
한사바리해장국,서울 마포구 창전동 2-31,37.5537255,126.9326366,마포구,mapo_gu
미당푸드,서울 서초구 양재동 15-10,37.4808326,127.0388864,서초구,seocho_gu
피슈마라홍탕 신촌점,서울 서대문구 창천동 72-12,37.5563335,126.9348124,서대문구,seodaemun_gu
방배송이족발,서울 서초구 방배동 777-5,37.4938353,126.9864959,서초구,seocho_gu
송가네보쌈,서울 서초구 방배동 911-20,37.4822407,126.9960407,서초구,seocho_gu
삼겹전문소년배달돼지 강남점,서울 서초구 반포동 731-27,37.5055692,127.0194651,서초구,seocho_gu
돈삼촌 김치찜 역삼점,서울 강남구 역삼동 719-24,37.500858,127.0405881,강남구,gangnam_gu
한양불족발,서울 서초구 방배동 876-20,37.4882772,126.9943639,서초구,seocho_gu
오니기리와 이규동,서울 성동구 성수동2가 289-211,37.5475625,127.0543807,성동구,seongdong_gu
미미롤집,서울 마포구 상암동 1597,37.5813283,126.888557,마포구,mapo_gu
"이불덮밥 상암DMC점,스키야키&모츠나베",서울 마포구 상암동 1596,37.5819653,126.8892157,마포구,mapo_gu
1992철판전문점,서울 마포구 상암동 1601,37.5800559,126.8889998,마포구,mapo_gu
쭝일아찌5단계빨강떡볶이,서울 용산구 신계동 36-14,37.5337646,126.9624758,용산구,yongsan_gu
미다래,서울 용산구 한강로3가 16-9,37.5328141,126.9597276,용산구,yongsan_gu
버팔로 스팟,서울 서초구 방배동 941-11,37.4852367,126.9905773,서초구,seocho_gu
동궁찜닭 송파점,서울 송파구 석촌동 240-22,37.4991287,127.1015559,송파구,songpa_gu
동궁찜닭 사당점,서울 동작구 사당동 39-16,37.4909939,126.9816632,동작구,dongjak_gu
닭갈비전,서울 서초구 서초동 1309-1,37.5020443,127.0240125,서초구,seocho_gu
토요커리,서울 서초구 반포동 720-24,37.5079166,127.0204449,서초구,seocho_gu
부다스밸리,서울 용산구 이태원동 457-1,37.534417,126.9884093,용산구,yongsan_gu
본떡볶이,서울 성동구 용답동 159-1,37.565079,127.0509107,성동구,seongdong_gu
카페더수,서울 강남구 역삼동 702-23,37.50417,127.0464147,강남구,gangnam_gu
황토왕김치감자탕,서울 광진구 구의동 252-130,37.5383588,127.0848525,광진구,gwangjin_gu
수셰프치킨 구의점,서울 광진구 구의동 599-8,37.532905,127.0918869,광진구,gwangjin_gu
최배달떡순튀 구의점,서울 광진구 구의동 252-65,37.5395188,127.0844469,광진구,gwangjin_gu
화양양꼬치,서울 광진구 구의동 252-77,37.5387887,127.0847564,광진구,gwangjin_gu
호세야 구의점,서울 광진구 구의동 210-2,37.5404279,127.0919935,광진구,gwangjin_gu
두마리찜닭 관악 난곡점,서울 관악구 신림동 1727,37.4697047,126.9191013,관악구,gwanak_gu
카사아지오,서울 강남구 역삼동 672-33,37.5036217,127.0393356,강남구,gangnam_gu
갯벌낙지 수제비,서울 서대문구 남가좌동 3-92,37.5834061,126.9230893,서대문구,seodaemun_gu
우사골 순대국밥,서울 서대문구 대현동 56-33,37.5580752,126.9450861,서대문구,seodaemun_gu
명랑한찜닭,서울 서대문구 창천동 52-144,37.5584584,126.9352087,서대문구,seodaemun_gu
보길도 활어회,서울 서대문구 북아현동 180-16,37.5632077,126.954749,서대문구,seodaemun_gu
돈낙곱순,서울 서대문구 홍제동 176-6,37.5876208,126.9462312,서대문구,seodaemun_gu
밥스틸러김치찜 명지대점,서울 서대문구 홍은동 398-11,37.581801,126.9269492,서대문구,seodaemun_gu
팔백국밥 신촌점,서울 서대문구 창천동 53-59,37.5590038,126.9341931,서대문구,seodaemun_gu
화덕 등갈비,서울 서대문구 연희동 141-34,37.577503,126.9366988,서대문구,seodaemun_gu
곤지암할매국밥&왕갈비탕 신림점,서울 관악구 신림동 1680-4,37.4774238,126.9143798,관악구,gwanak_gu
행복한찜닭,서울 서대문구 대현동 60-7,37.558885,126.9460921,서대문구,seodaemun_gu
길상식당,서울 서대문구 창천동 57-34,37.5572072,126.9356502,서대문구,seodaemun_gu
명물 옛날 수제 돼지갈비,서울 서대문구 창천동 2-28,37.5587992,126.9384715,서대문구,seodaemun_gu
일품아구찜,서울 송파구 문정동 652,37.4855846,127.1225635,송파구,songpa_gu
일품낙지 & 쭈꾸미,서울 송파구 문정동 652,37.4855846,127.1225635,송파구,songpa_gu
일품갈비 & 냉면,서울 송파구 문정동 652,37.4855846,127.1225635,송파구,songpa_gu
금메달 아구찜,서울 송파구 문정동 652,37.4855846,127.1225635,송파구,songpa_gu
삼겹 & 제육끝판왕,서울 송파구 문정동 652,37.4855846,127.1225635,송파구,songpa_gu
달보드레안주마을,서울 송파구 잠실동 196,37.5099049,127.0791961,송파구,songpa_gu
풀리어트샐러드,서울 송파구 문정동 651,37.4855846,127.1225635,송파구,songpa_gu
98떡볶이,서울 송파구 마천동 141-17,37.4981363,127.1495215,송파구,songpa_gu
솜고래다방,서울 관악구 신림동 1525-4,37.4705515,126.9336796,관악구,gwanak_gu
남도한정식,서울 용산구 한강로3가 16-9,37.5328141,126.9597276,용산구,yongsan_gu
라쿤피자,서울 송파구 방이동 124-22,37.5096918,127.1176761,송파구,songpa_gu
정통마라탕 마포마라회관 선릉점,서울 강남구 대치동 896-16,37.5036335,127.052218,강남구,gangnam_gu
헬키푸키 선릉점,서울 강남구 대치동 908,37.5005034,127.0512048,강남구,gangnam_gu
신밥샵,서울 성동구 마장동 388-19,37.5626675,127.0419304,성동구,seongdong_gu
화양양고기꼬치전문점,서울 광진구 화양동 9-50,37.5426884,127.069118,광진구,gwangjin_gu
정성성 도시락,서울 강남구 역삼동 797-3,37.4949746,127.0393841,강남구,gangnam_gu
타코로코,서울 서대문구 창천동 53-20,37.5581135,126.9346323,서대문구,seodaemun_gu
리틀갱스터,서울 용산구 도원동 3-6,37.5391856,126.9579049,용산구,yongsan_gu
배떡 홍제점,서울 서대문구 홍제동 154-10,37.585867,126.9462261,서대문구,seodaemun_gu
삼미마라탕,서울 서대문구 창천동 62-23,37.556763,126.934142,서대문구,seodaemun_gu
캘리인더볼,서울 서대문구 창천동 445,37.5616305,126.927291,서대문구,seodaemun_gu
미타우동,서울 서대문구 홍제동 287-216,37.5960015,126.9470523,서대문구,seodaemun_gu
민정이네 베트남 쌀국수,서울 서대문구 홍제동 287-49,37.596972,126.9472984,서대문구,seodaemun_gu
아비꼬 신촌점,서울 서대문구 창천동 5-31,37.5586695,126.9395046,서대문구,seodaemun_gu
엘살루드,서울 서대문구 창천동 2-21,37.5589369,126.9386493,서대문구,seodaemun_gu
화라라마라탕,서울 서대문구 대현동 34-34,37.5593129,126.9442885,서대문구,seodaemun_gu
한뿌리죽 이촌본점,서울 용산구 이촌동 301-10,37.5200574,126.9745365,용산구,yongsan_gu
신룽푸 마라탕,서울 서대문구 대현동 60-8,37.5590354,126.9459066,서대문구,seodaemun_gu
홍대개미 신촌점,서울 서대문구 창천동 18-9,37.5571569,126.9371269,서대문구,seodaemun_gu
정 한뿌리죽 키친 송파점,서울 송파구 방이동 218-25,37.5074165,127.1227745,송파구,songpa_gu
유가네닭갈비 신대방삼거리역점,서울 동작구 상도동 328-10,37.4987807,126.9288996,동작구,dongjak_gu
전골떡볶이 덕미가,서울 서대문구 대현동 54-9,37.5579661,126.9460909,서대문구,seodaemun_gu
언젠가는,서울 동작구 사당동 88-11,37.4885327,126.9818303,동작구,dongjak_gu
생백골뱅이집,서울 마포구 상암동 2-141,37.5763037,126.8967253,마포구,mapo_gu
제비뽑기,서울 성동구 성수동2가 277-40,37.5440001,127.0621497,성동구,seongdong_gu
포보스 쌀국수,서울 성동구 성수동2가 280,37.5466713,127.0661249,성동구,seongdong_gu
세미,서울 광진구 광장동 257-4,37.5470626,127.103877,광진구,gwangjin_gu
포아이니베트남쌀국수 광장점,서울 광진구 광장동 287-4,37.5475592,127.1044574,광진구,gwangjin_gu
37.5 파스타 브런치 광진점,서울 광진구 광장동 322-6,37.5471989,127.1076351,광진구,gwangjin_gu
와로샐러드 서울지점,서울 송파구 가락동 174-24,37.4959505,127.1351597,송파구,songpa_gu
황금해장국,서울 송파구 마천동 125-23,37.4974487,127.1483899,송파구,songpa_gu
만들다,서울 송파구 마천동 128-9,37.4958303,127.1500425,송파구,songpa_gu
아토키토 샐러드&포케 가좌점,서울 서대문구 북가좌동 484,37.5712513,126.912253,서대문구,seodaemun_gu
타이반쩜상암점,서울 서대문구 북가좌동 372-14,37.5764774,126.9047758,서대문구,seodaemun_gu
도화곱창,서울 마포구 도화동 179-7,37.5413245,126.9494398,마포구,mapo_gu
샐러드 스웨이쿡,서울 광진구 군자동 150-12,37.5538945,127.0739889,광진구,gwangjin_gu
사위식당,서울 마포구 공덕동 467,37.544931,126.9505963,마포구,mapo_gu
두찜광진중곡점,서울 광진구 중곡동 30-80,37.5649376,127.0845873,광진구,gwangjin_gu
소풍가는날,서울 마포구 합정동 411-13,37.5481698,126.9180449,마포구,mapo_gu
봉피양마포,서울 마포구 용강동 50-3,37.5400093,126.942765,마포구,mapo_gu
골드김밥마포점,서울 마포구 상수동 324-7,37.547588,126.9224746,마포구,mapo_gu
봉추찜닭 숙대점,서울 용산구 청파동3가 26-15,37.5442305,126.9698042,용산구,yongsan_gu
황금소,서울 용산구 용문동 18-15,37.5363629,126.9614238,용산구,yongsan_gu
아구듬뿍알곤마니,서울 관악구 봉천동 1566-3,37.4792989,126.9475074,관악구,gwanak_gu
피슈 마라 홍탕 마포역점,서울 마포구 도화동 201-42,37.5395887,126.9477491,마포구,mapo_gu
솔트앤스낵신림점,서울 관악구 신림동 1630-2,37.4792341,126.9283595,관악구,gwanak_gu
미미마라탕,서울 서초구 반포동 18-4,37.5030753,126.9956677,서초구,seocho_gu
소문난 순대국,서울 관악구 신림동 1587-34,37.4817977,126.9282267,관악구,gwanak_gu
황금족발보쌈,서울 동작구 사당동 224-52,37.4848295,126.9688634,동작구,dongjak_gu
양촌떡갈비,서울 관악구 신림동 1592-1,37.482844,126.926527,관악구,gwanak_gu
너구리전집,서울 관악구 신림동 1587-33,37.4818663,126.9281353,관악구,gwanak_gu
신원시장 고려왕족발,서울 관악구 신림동 1600-2,37.4819326,126.9277619,관악구,gwanak_gu
전라도호남댁 헝아네,서울 관악구 신림동 1640-38,37.4833239,126.9290466,관악구,gwanak_gu
국민낙곱새 송파점,서울 송파구 가락동 130,37.4942105,127.1255319,송파구,songpa_gu
양지88순대,서울 관악구 신림동 1640-38,37.4833239,126.9290466,관악구,gwanak_gu
마라탕입구,서울 관악구 신림동 1639-19,37.4837816,126.9278583,관악구,gwanak_gu
유진감자탕,서울 서대문구 홍제동 253-12,37.5887574,126.9448088,서대문구,seodaemun_gu
두마리찜닭 두찜 보라매점,서울 관악구 봉천동 708-2,37.4915313,126.9279052,관악구,gwanak_gu
알찬제육봉천신림점,서울 관악구 봉천동 957-32,37.4855126,126.9375131,관악구,gwanak_gu
아차산매운떡볶이 본점,서울 광진구 자양동 859,37.5377045,127.0815286,광진구,gwangjin_gu
행복한조개맛집,서울 관악구 신림동 1587-12,37.4830618,126.9265444,관악구,gwanak_gu
탄탄숯불구이,서울 마포구 망원동 517,37.5584893,126.9063026,마포구,mapo_gu
앨리스의토끼굴,서울 송파구 석촌동 24-3,37.5065624,127.1003724,송파구,songpa_gu
구미호마라탕 봉천점,서울 관악구 봉천동 923-3,37.4823641,126.9446452,관악구,gwanak_gu
태가커피,서울 마포구 서교동 400-26,37.5487568,126.9183146,마포구,mapo_gu
두번먹는 명인김치찜 삼전점,서울 송파구 삼전동 61-14,37.5024032,127.0919892,송파구,songpa_gu
30년 불멸의 닭발 삼전점,서울 송파구 삼전동 61-14,37.5024032,127.0919892,송파구,songpa_gu
도가방,서울 송파구 문정동 620,37.4807632,127.1212484,송파구,songpa_gu
명운추어탕,서울 관악구 신림동 110-83,37.4722907,126.9346607,관악구,gwanak_gu
마라포차,서울 관악구 신림동 1525-6,37.4703601,126.9338066,관악구,gwanak_gu
호세야 오리바베큐 (만나푸드),서울 관악구 신림동 598-209,37.474461,126.9199351,관악구,gwanak_gu
커피타다,서울 광진구 구의동 237-49,37.5423077,127.0853951,광진구,gwangjin_gu
등촌식당,서울 강서구 등촌동 509-3,37.5489783,126.8630992,강서구,gangseo_gu
밥술술,서울 영등포구 양평동4가 94,37.5368696,126.8937503,영등포구,yeongdeungpo_gu
양푼이동태탕,서울 영등포구 양평동4가 153-6,37.5364227,126.8973247,영등포구,yeongdeungpo_gu
양소원,서울 영등포구 양평동4가 32-3,37.534511,126.8978394,영등포구,yeongdeungpo_gu
민코,서울 영등포구 양평동4가 22-1,37.5354064,126.8950745,영등포구,yeongdeungpo_gu
대박삼겹김치찜&초대박등갈비김치찜,서울 영등포구 당산동4가 37-5,37.5288377,126.8970059,영등포구,yeongdeungpo_gu
에펠샐러드,서울 강서구 마곡동 758,37.5692909,126.825613,강서구,gangseo_gu
오마뎅 당산 래미안점,서울 영등포구 당산동5가 11-34,37.5318615,126.90107,영등포구,yeongdeungpo_gu
온달떡볶이,서울 영등포구 당산동4가 32-12,37.5285419,126.9001607,영등포구,yeongdeungpo_gu
펭귄냉면 본점,서울 강서구 화곡동 1115-19,37.5529099,126.8526008,강서구,gangseo_gu
마스터키친(직접 끓이는육수 백그릇 냉면),서울 강서구 화곡동 1115-19,37.5529099,126.8526008,강서구,gangseo_gu
교반육회비빔밥도시락&냉면 마곡점,서울 강서구 마곡동 800-15,37.5579379,126.8307016,강서구,gangseo_gu
오늘의찜,서울 영등포구 영등포동7가 203,37.5243938,126.9067528,영등포구,yeongdeungpo_gu
인생타코 발산점 (샾인생타코),서울 강서구 내발산동 681-17,37.5529608,126.8341822,강서구,gangseo_gu
산촌신쭈꾸미 영등포점,서울 영등포구 영등포동7가 63-18,37.5253616,126.9041199,영등포구,yeongdeungpo_gu
라화방마라탕,서울 강서구 마곡동 774-9,37.5601204,126.8320969,강서구,gangseo_gu
만월샐러드&샌드위치,서울 강서구 등촌동 678,37.5617107,126.8401102,강서구,gangseo_gu
트라타 앤 샐러드로우 마곡점,서울 강서구 마곡동 797-1,37.5593023,126.835223,강서구,gangseo_gu
다미만두,서울 영등포구 영등포동4가 147-2,37.5201241,126.9027777,영등포구,yeongdeungpo_gu
조개깡패연구소 발산마곡,서울 강서구 마곡동 797-14,37.5596207,126.8372262,강서구,gangseo_gu
디저트숍 뜨리먼뜨,서울 강서구 화곡동 812-8,37.5345161,126.8599117,강서구,gangseo_gu
요리하는남자,서울 강서구 화곡동 822-23,37.5346894,126.8564915,강서구,gangseo_gu
장모보쌈,서울 강서구 화곡동 1114-24,37.5545427,126.8538988,강서구,gangseo_gu
88제육 강서화곡점,서울 강서구 화곡동 848-23,37.5314636,126.857396,강서구,gangseo_gu
팥장군,서울 강서구 화곡동 391-55,37.5309252,126.8503067,강서구,gangseo_gu
초밥한잎,서울 양천구 신월동 474-2,37.5254533,126.8495251,양천구,yangcheon_gu
구름계란덮밥 당산점,서울 영등포구 영등포동7가 208,37.5233829,126.9056134,영등포구,yeongdeungpo_gu
조선마라탕,서울 강서구 방화동 246-11,37.5688239,126.8154342,강서구,gangseo_gu
주식회사 휴림,서울 강서구 방화동 908,37.5759058,126.8135931,강서구,gangseo_gu
칠복 닭강정 화곡점,서울 강서구 화곡동 98-154,37.5432588,126.8435017,강서구,gangseo_gu
카페인싸,서울 강서구 화곡동 960-1,37.5486877,126.8519811,강서구,gangseo_gu
지호한방삼계탕,서울 강서구 등촌동 566-20,37.5362467,126.8631589,강서구,gangseo_gu
연테이블,서울 동작구 신대방동 607-24,37.4897965,126.9089965,동작구,dongjak_gu
돈돌부대찌개,서울 강서구 등촌동 510-13,37.548712,126.8630628,강서구,gangseo_gu
신고집해물찜,서울 강서구 화곡동 1052,37.5432326,126.8392283,강서구,gangseo_gu
동해물과 아구찜,서울 강서구 화곡동 1071-44,37.5387807,126.835052,강서구,gangseo_gu
소림마라 영등포점,서울 영등포구 당산동1가 78-3,37.5212437,126.8995181,영등포구,yeongdeungpo_gu
남도식당,서울 강서구 화곡동 362-167,37.5336529,126.8406895,강서구,gangseo_gu
네모푸드,서울 강서구 화곡동 978-14,37.5493717,126.8491485,강서구,gangseo_gu
큰맘할매순대국산들바다점,서울 영등포구 문래동3가 46,37.5194432,126.8980628,영등포구,yeongdeungpo_gu
찐하오마라탕,서울 양천구 목동 709-2,37.5427541,126.8634712,양천구,yangcheon_gu
온솥,서울 영등포구 당산동2가 48-28,37.522523,126.8923464,영등포구,yeongdeungpo_gu
온솥,서울 강서구 화곡동 1118-18,37.551386,126.851702,강서구,gangseo_gu
제이와돈,서울 강서구 화곡동 979-7,37.5499021,126.849561,강서구,gangseo_gu
소문장,서울 양천구 목동 615-6,37.547828,126.8642232,양천구,yangcheon_gu
해몽 꽃삼겹살 / 넉넉한사람들,서울 양천구 신정동 130-1,37.5185148,126.8760062,양천구,yangcheon_gu
가정식당,서울 영등포구 당산동2가 6,37.5212977,126.8946414,영등포구,yeongdeungpo_gu
푸드 딜리버리,서울 강서구 화곡동 400-84,37.5379137,126.8400983,강서구,gangseo_gu
국가대표아구찜&알곤이찜. 화곡점,서울 강서구 화곡동 1020-9,37.5440661,126.8357654,강서구,gangseo_gu
조병관숙성회,서울 강서구 화곡동 1121-2,37.5526547,126.8527098,강서구,gangseo_gu
두마리찜닭 두찜 영등포신길점,서울 영등포구 신길동 235-1,37.5059375,126.9117918,영등포구,yeongdeungpo_gu
소녀네반찬cafe,서울 강서구 화곡동 340-47,37.5334823,126.8460766,강서구,gangseo_gu
부스터샐러드,서울 양천구 신정동 1027-2,37.5213639,126.8572461,양천구,yangcheon_gu
카페 잔디의 숲 / 제이디공방,서울 강서구 화곡동 834-1,37.5324685,126.8570167,강서구,gangseo_gu
돈맛탱 삼겹살전문점,서울 강서구 마곡동 774-9,37.5601204,126.8320969,강서구,gangseo_gu
"삼촌네춘천닭갈비,닭발의화신",서울 양천구 목동 792-13,37.533194,126.8642323,양천구,yangcheon_gu
평미가,서울 양천구 신정동 294-12,37.5189616,126.8715265,양천구,yangcheon_gu
박민자 당진 아구찜탕,서울 영등포구 신길동 488,37.4989926,126.9183167,영등포구,yeongdeungpo_gu
소희네식당,서울 강서구 내발산동 676-18,37.5526785,126.8382239,강서구,gangseo_gu
애솔촌돼지,서울 영등포구 양평동2가 33-49,37.5245495,126.885096,영등포구,yeongdeungpo_gu
곱분이곱창,서울 영등포구 양평동2가 31-47,37.5241051,126.8846673,영등포구,yeongdeungpo_gu
환이네뭉티기,서울 강서구 내발산동 722,37.5483674,126.8338549,강서구,gangseo_gu
타이문,서울 영등포구 문래동6가 29,37.5211114,126.8869935,영등포구,yeongdeungpo_gu
쁘띠문래,서울 영등포구 문래동6가 29,37.5211114,126.8869935,영등포구,yeongdeungpo_gu
종로김밥 문래점,서울 영등포구 문래동6가 24-1,37.5190066,126.8859677,영등포구,yeongdeungpo_gu
쌍둥이네숯불닭갈비&수제닭꼬치 7호점,서울 강서구 화곡동 895-7,37.5302051,126.8492753,강서구,gangseo_gu
여로집,서울 강서구 마곡동 795-2,37.5605794,126.8375938,강서구,gangseo_gu
윤심이네 닭매운탕,서울 영등포구 문래동2가 49-17,37.5131163,126.8925558,영등포구,yeongdeungpo_gu
야무진 떡볶이,서울 강서구 내발산동 750-7,37.5523122,126.8265384,강서구,gangseo_gu
마부마라탕,서울 영등포구 문래동3가 55-20,37.5147541,126.8989475,영등포구,yeongdeungpo_gu
마마부대찌개,서울 양천구 신정동 1028-9,37.5210648,126.8566707,양천구,yangcheon_gu
소백양샤브,서울 영등포구 영등포동 618-36,37.5138122,126.9080815,영등포구,yeongdeungpo_gu
샐러드 박스,서울 종로구 수송동 67-1,37.5725726,126.9802902,종로구,jongno_gu
네모오징어 대방역점,서울 영등포구 신길동 69-9,37.5131568,126.9219993,영등포구,yeongdeungpo_gu
시골순대,서울 영등포구 신길동 111-9,37.5126229,126.9184217,영등포구,yeongdeungpo_gu
정통마라탕마포마라회관,서울 마포구 도화동 536,37.5425213,126.9473562,마포구,mapo_gu
30년 불멸의 닭발,서울 강서구 내발산동 659-16,37.5557334,126.8429145,강서구,gangseo_gu
이것이 빈대떡이다,서울 강서구 화곡동 1132-3,37.5521547,126.8531724,강서구,gangseo_gu
식사의 사계,서울 강서구 화곡동 979-22,37.5492933,126.8501427,강서구,gangseo_gu
틸란,서울 강서구 화곡동 1077-2,37.5403397,126.8408951,강서구,gangseo_gu
1kg 배달삼겹,서울 종로구 경운동 91-1,37.5762856,126.9859657,종로구,jongno_gu
신월동오남매닭갈비,서울 양천구 신월동 517-4,37.5218883,126.842419,양천구,yangcheon_gu
이화양꼬치,서울 양천구 목동 406-79,37.5256536,126.8723185,양천구,yangcheon_gu
마라부엌,서울 성동구 행당동 311-31,37.5584017,127.0318396,성동구,seongdong_gu
피쉬버켓,서울 마포구 합정동 373-3,37.5482037,126.9145904,마포구,mapo_gu
황비홍마라탕,서울 강서구 내발산동 677-25,37.5527998,126.8370408,강서구,gangseo_gu
승화초밥,서울 강서구 내발산동 718-18,37.5497796,126.8354648,강서구,gangseo_gu
오성아구뽈찜,서울 양천구 신정동 294-44,37.5176169,126.8709926,양천구,yangcheon_gu
동네맛집,서울 강서구 내발산동 717-24,37.5494745,126.8348384,강서구,gangseo_gu
유자유 김치 떡볶이 대학로점,서울 종로구 명륜4가 59-3,37.5829,126.9995972,종로구,jongno_gu
VAN XUAN(반수우안),서울 종로구 동숭동 1-74,37.5824918,127.0035427,종로구,jongno_gu
청년다방공항송정역점,서울 강서구 공항동 34-9,37.560994,126.8119263,강서구,gangseo_gu
꽃백숙,서울 종로구 창신동 573-1,37.5723823,127.0108189,종로구,jongno_gu
오한수우육면가 마곡점,서울 강서구 마곡동 771-3,37.5609517,126.8288177,강서구,gangseo_gu
상도연탄갈비,서울 양천구 목동 404-129,37.5233076,126.8756128,양천구,yangcheon_gu
남성주뱃살삼겹살,서울 강서구 마곡동 800-1,37.5588167,126.8310072,강서구,gangseo_gu
명성각,서울 강서구 마곡동 801-2,37.5584316,126.8349184,강서구,gangseo_gu
네코라멘,서울 양천구 신정동 202-41,37.5087664,126.8655298,양천구,yangcheon_gu
목동가,서울 양천구 신정동 323-16,37.5153085,126.862318,양천구,yangcheon_gu
송주불냉면 신월1점,서울 양천구 신월동 523-2,37.5211322,126.838996,양천구,yangcheon_gu
남도홍어,서울 양천구 신월동 529-2,37.5198122,126.8412957,양천구,yangcheon_gu
오떡후,서울 강서구 염창동 274,37.5514323,126.8654944,강서구,gangseo_gu
전주식당,서울 종로구 관수동 43-2,37.5698953,126.9911411,종로구,jongno_gu
미담쭈꾸미,서울 종로구 관철동 22,37.5693677,126.9884305,종로구,jongno_gu
한티옥,서울 송파구 방이동 182-2,37.512895,127.1241552,송파구,songpa_gu
다한,서울 서대문구 냉천동 261-2,37.5668386,126.963888,서대문구,seodaemun_gu
비빔밥&죽해까득,서울 양천구 신정동 907-9,37.5259665,126.8600043,양천구,yangcheon_gu
밀밭,서울 송파구 방이동 159-16,37.5122744,127.1192852,송파구,songpa_gu
팜앤라이프,서울 마포구 신수동 288-9,37.5450681,126.9356206,마포구,mapo_gu
화수목 (花水木),서울 마포구 신수동 103-4,37.5485691,126.9330518,마포구,mapo_gu
주식회사 여진곱,서울 종로구 낙원동 66,37.573158,126.9883086,종로구,jongno_gu
자연담은도시락,서울 종로구 내수동 73,37.5726204,126.9722454,종로구,jongno_gu
아시안쿠진,서울 종로구 내자동 3-1,37.5764731,126.971938,종로구,jongno_gu
육십삼 프로방스 마포공덕점,서울 마포구 도화동 268,37.5395422,126.9487569,마포구,mapo_gu
일오삼 나주곰탕 마포점,서울 마포구 도화동 201-14,37.5397961,126.9478401,마포구,mapo_gu
우리동네,서울 양천구 목동 739-5,37.5388319,126.8664757,양천구,yangcheon_gu
마라연구소 목동점,서울 양천구 목동 753-12,37.5372665,126.8718683,양천구,yangcheon_gu
안녕꽃게씨,서울 마포구 성산동 159-2,37.568531,126.9059399,마포구,mapo_gu
해물상회,서울 종로구 인의동 25,37.5735209,126.9981648,종로구,jongno_gu
성경,서울 마포구 공덕동 256-5,37.5451968,126.953314,마포구,mapo_gu
꼬꼬누룽지통닭,서울 양천구 신월동 235-6,37.5287991,126.8388324,양천구,yangcheon_gu
칠구네 신림동 백순대&순대국 염창역점,서울 양천구 목동 507-8,37.5470251,126.8706659,양천구,yangcheon_gu
리얼파스타(망원점),서울 마포구 망원동 378-9,37.5551493,126.9101512,마포구,mapo_gu
라화쿵부 망원점,서울 마포구 망원동 403-21,37.5552922,126.9063317,마포구,mapo_gu
치치,서울 종로구 동숭동 1-57,37.5825008,127.0024538,종로구,jongno_gu
연아푸드,서울 마포구 염리동 515-1,37.55155,126.9482261,마포구,mapo_gu
고씨네,서울 종로구 동숭동 1-89,37.5812351,127.0040242,종로구,jongno_gu
주식회사 니로사,서울 종로구 동숭동 1-152,37.5802346,127.0042668,종로구,jongno_gu
포아당 대학로점,서울 종로구 동숭동 1-87,37.5816931,127.0039794,종로구,jongno_gu
반포식스 대학로점,서울 종로구 동숭동 1-87,37.5816931,127.0039794,종로구,jongno_gu
더(The)드림한상,서울 서대문구 남가좌동 7-5,37.5826105,126.9237706,서대문구,seodaemun_gu
교토스시,서울 종로구 동숭동 1-152,37.5802346,127.0042668,종로구,jongno_gu
광화문등심당,서울 종로구 당주동 5,37.571988,126.9743281,종로구,jongno_gu
정다담족발,서울 영등포구 신길동 4679,37.4943079,126.9091263,영등포구,yeongdeungpo_gu
얌얌집밥,서울 양천구 목동 923-14,37.5274646,126.871643,양천구,yangcheon_gu
행컵,서울 양천구 목동 907-17,37.5356048,126.8787598,양천구,yangcheon_gu
유독,서울 종로구 동숭동 50-11,37.581739,127.0047725,종로구,jongno_gu
에이엠 1995,서울 관악구 봉천동 7-273,37.4882789,126.9576931,관악구,gwanak_gu
라라본국,서울 마포구 합정동 427-7,37.5533985,126.9116614,마포구,mapo_gu
라화마라탕,서울 영등포구 대림동 836-2,37.4934696,126.9016322,영등포구,yeongdeungpo_gu
크랩회피쉬,서울 영등포구 대림동 603-34,37.5048613,126.8976339,영등포구,yeongdeungpo_gu
자매곱창,서울 양천구 신월동 55-16,37.5378918,126.8281362,양천구,yangcheon_gu
정가네 뽈테기 찜탕,서울 양천구 신월동 166-2,37.5349265,126.8283704,양천구,yangcheon_gu
착한고기,서울 양천구 신월동 96-4,37.5359598,126.8308224,양천구,yangcheon_gu
수상한파스타 상수본점,서울 마포구 상수동 314-8,37.5482618,126.9213263,마포구,mapo_gu
피자로뎀,서울 영등포구 대림동 909-44,37.496251,126.9073174,영등포구,yeongdeungpo_gu
놀부부대찌개&철판구이,서울 영등포구 대림동 909-2,37.496457,126.9080686,영등포구,yeongdeungpo_gu
쌀똑 핫도그 북가좌점,서울 서대문구 북가좌동 107-1,37.5754699,126.9134006,서대문구,seodaemun_gu
허가네행복찌개,서울 강서구 방화동 573-2,37.5731239,126.8124942,강서구,gangseo_gu
로꼬로꼬조개찜,서울 영등포구 영등포동3가 4-12,37.5191266,126.9070526,영등포구,yeongdeungpo_gu
김해숙들마루순대국,서울 양천구 신월동 113-28,37.532988,126.8355623,양천구,yangcheon_gu
애리식당,서울 양천구 신월동 224-27,37.5296332,126.834068,양천구,yangcheon_gu
가장맛있는족발,서울 마포구 상암동 2-93,37.5778163,126.8959705,마포구,mapo_gu
마녀의 컵플하우스,서울 영등포구 대림동 786-5,37.5012755,126.8962355,영등포구,yeongdeungpo_gu
달꿍,서울 성동구 하왕십리동 985,37.5614055,127.0304605,성동구,seongdong_gu
낭만 김치찌개,서울 강서구 등촌동 663-21,37.5586659,126.8452889,강서구,gangseo_gu
맛뿔감자탕,서울 영등포구 대림동 990-4,37.4887111,126.9056409,영등포구,yeongdeungpo_gu
달무리떡,서울 성동구 마장동 791-9,37.5656912,127.0427762,성동구,seongdong_gu
문래감자탕순대국,서울 영등포구 양평동2가 1-1,37.5218847,126.8846639,영등포구,yeongdeungpo_gu
마라전문 미메이라 홍제점,서울 서대문구 홍은동 41-1,37.5934104,126.9444035,서대문구,seodaemun_gu
달드,서울 성동구 하왕십리동 989-16,37.5624298,127.0308578,성동구,seongdong_gu
한사바리해장국 왕십리점,서울 성동구 하왕십리동 955-1,37.5635246,127.0304686,성동구,seongdong_gu
하노이의아침,서울 영등포구 여의도동 43-3,37.520818,126.9311537,영등포구,yeongdeungpo_gu
인정푸드,서울 송파구 오금동 122-4,37.5052134,127.137352,송파구,songpa_gu
노멀브런치(Normal Brunch),서울 용산구 용산동2가 1-402,37.5457758,126.9819092,용산구,yongsan_gu
오봉도시락영등포양평점,서울 영등포구 양평동3가 5-4,37.5254916,126.8913475,영등포구,yeongdeungpo_gu
신화불닭,서울 서대문구 창천동 53-3,37.5585899,126.9345983,서대문구,seodaemun_gu
홍대원조낙곱새,서울 서대문구 창천동 53-3,37.5585899,126.9345983,서대문구,seodaemun_gu
케이6송탄부대찌개,서울 양천구 목동 793-2,37.5321282,126.8640853,양천구,yangcheon_gu
도리식탁,서울 양천구 목동 923-14,37.5274646,126.871643,양천구,yangcheon_gu
또오기찌개마을,서울 용산구 원효로1가 47-18,37.5404249,126.9684745,용산구,yongsan_gu
스낵서울,서울 종로구 삼청동 80-6,37.5835487,126.9816991,종로구,jongno_gu
종로바베큐보쌈,서울 종로구 효제동 233-2,37.5715998,127.0038371,종로구,jongno_gu
황금짜장,서울 관악구 봉천동 930-15,37.4820075,126.9412044,관악구,gwanak_gu
마라인마라탕마라샹궈,서울 광진구 중곡동 49-3,37.5603744,127.0831017,광진구,gwangjin_gu
부산에서한남까지 낙곱새 본점,서울 용산구 한남동 619-1,37.5321235,127.005098,용산구,yongsan_gu
삼합당,서울 관악구 신림동 1433-67,37.4846748,126.927871,관악구,gwanak_gu
누아젯,서울 관악구 봉천동 1625-23,37.4770184,126.9586153,관악구,gwanak_gu
쏠 파스타,서울 서초구 반포동 60-4,37.5013538,127.0087793,서초구,seocho_gu
국사랑 방배점,서울 서초구 방배동 1024-6,37.4772215,127.0009045,서초구,seocho_gu
153콩나물국밥,서울 광진구 자양동 226-6,37.5385584,127.076234,광진구,gwangjin_gu
행복한과일,서울 송파구 송파동 121,37.5050678,127.11454,송파구,songpa_gu
샹츠마라 구의 직영점,서울 광진구 구의동 252-43,37.5375953,127.0838404,광진구,gwangjin_gu
소림타운 광진점,서울 광진구 구의동 668,37.5458469,127.0900916,광진구,gwangjin_gu
모두뼈다귀감자탕,서울 강서구 화곡동 1006-9,37.5474046,126.8360059,강서구,gangseo_gu
마라영웅 영등포점,서울 영등포구 영등포동6가 4-2,37.5206118,126.9040709,영등포구,yeongdeungpo_gu
두찜 잠실새내점,서울 송파구 잠실동 213-4,37.5083766,127.0836556,송파구,songpa_gu
툇마루 연탄구이 한우한돈,서울 송파구 잠실동 179-1,37.5108173,127.08074,송파구,songpa_gu
니하오마라탕,서울 종로구 교남동 36-3,37.5678873,126.9653234,종로구,jongno_gu
바다왕국,서울 송파구 가락동 18-13,37.5018889,127.1249041,송파구,songpa_gu
이태리식당,서울 광진구 화양동 23-1,37.5475607,127.0678357,광진구,gwangjin_gu
주식회사 제이푸디,서울 송파구 방이동 223-1,37.507329,127.1213435,송파구,songpa_gu
라사천마라탕 방이점,서울 송파구 방이동 129-3,37.5095509,127.1189477,송파구,songpa_gu
라사천마라탕,서울 마포구 상암동 1293,37.5770021,126.8969466,마포구,mapo_gu
성균관감자탕,서울 종로구 명륜3가 118-3,37.5841912,126.9971781,종로구,jongno_gu
정성미역국 문정점,서울 송파구 문정동 652,37.4855846,127.1225635,송파구,songpa_gu
타이반쩜 신림점,서울 관악구 봉천동 492-12,37.488039,126.946877,관악구,gwanak_gu
타이반쩜 영등포점,서울 영등포구 대림동 784,37.5033123,126.8958538,영등포구,yeongdeungpo_gu
서라벌 김치찜,서울 마포구 창전동 438,37.5526875,126.9321375,마포구,mapo_gu
이화원 중식당,서울 영등포구 대림동 893-58,37.4961221,126.9051351,영등포구,yeongdeungpo_gu
원조감자탕 일미집 보라매점,서울 동작구 신대방동 395-69,37.4913311,126.924105,동작구,dongjak_gu
죽도령 신정점,서울 양천구 신정동 1032-10,37.5191756,126.8536823,양천구,yangcheon_gu
구내식당,서울 마포구 망원동 57-194,37.5543407,126.9069615,마포구,mapo_gu
마약낙곱새 관악점,서울 관악구 봉천동 466-13,37.4869776,126.949127,관악구,gwanak_gu
진전복삼계탕 대치점,서울 강남구 대치동 974,37.5008276,127.0609734,강남구,gangnam_gu
떡볶이 참 잘하는집 강남일원점,서울 강남구 일원동 682-7,37.4910937,127.0824284,강남구,gangnam_gu
복대감엔 볓짚구이마을,서울 강남구 일원동 666-9,37.490245,127.0850548,강남구,gangnam_gu
와이제이컴퍼니,서울 서초구 서초동 1687-2,37.4961565,127.0193719,서초구,seocho_gu
왕십리곱창,서울 송파구 마천동 143-2,37.4979212,127.1508642,송파구,songpa_gu
소오,서울 서대문구 대현동 60-5,37.5590723,126.9463054,서대문구,seodaemun_gu
오엠지OMG 치킨앤샐러드,서울 강남구 대치동 1022-3,37.4977479,127.0589213,강남구,gangnam_gu
온솥 주식회사,서울 강남구 역삼동 724-36,37.4994609,127.0425773,강남구,gangnam_gu
낭만타코,서울 강남구 역삼동 736-58,37.4992508,127.035933,강남구,gangnam_gu
아침점심저녁 본점,서울 강남구 역삼동 706-17,37.5021563,127.0440704,강남구,gangnam_gu
아침점심저녁 화곡점,서울 강서구 화곡동 347-2,37.5324353,126.8429565,강서구,gangseo_gu
스파게티스토리,서울 강남구 역삼동 752-53,37.4943695,127.03384,강남구,gangnam_gu
앨리스핫도그,서울 강남구 논현동 108,37.5184523,127.03803,강남구,gangnam_gu
뭐먹집,서울 강남구 삼성동 8-2,37.5155551,127.0423675,강남구,gangnam_gu
판다비즈,서울 강남구 역삼동 660-25,37.5059471,127.037187,강남구,gangnam_gu
바로푸드,서울 강남구 역삼동 660-25,37.5059471,127.037187,강남구,gangnam_gu
곰프레시,서울 강남구 역삼동 660-25,37.5059471,127.037187,강남구,gangnam_gu
돌판장 주식회사,서울 용산구 한강로2가 2-352,37.5336129,126.970273,용산구,yongsan_gu
곰푸드,서울 강남구 역삼동 660-25,37.5059471,127.037187,강남구,gangnam_gu
이선생짜글이 우성사거리점,서울 서초구 서초동 1337-22,37.4915781,127.0299697,서초구,seocho_gu
찐하오 마라탕,서울 관악구 봉천동 1718,37.4892875,126.9447672,관악구,gwanak_gu
간지떡볶이 돈까스,서울 강남구 삼성동 8-2,37.5155551,127.0423675,강남구,gangnam_gu
묵찜빠강남점,서울 강남구 삼성동 8-2,37.5155551,127.0423675,강남구,gangnam_gu
주식회사 잇그린,서울 강남구 역삼동 624-14,37.5040328,127.0315192,강남구,gangnam_gu
배떡 교대점,서울 서초구 서초동 1639-3,37.4941857,127.0183938,서초구,seocho_gu
구름계란덮밥 강남점,서울 강남구 논현동 221-7,37.5097158,127.0335241,강남구,gangnam_gu
"동해, 김명자 낙지마당",서울 강남구 개포동 1228-4,37.4754445,127.0473535,강남구,gangnam_gu
그린레시피,서울 강남구 논현동 167-17,37.5076551,127.0256975,강남구,gangnam_gu
정담남원추어탕,서울 서초구 방배동 926-27,37.4841734,126.9948885,서초구,seocho_gu
신림동본가백순대,서울 관악구 봉천동 970-21,37.4894765,126.9289575,관악구,gwanak_gu
153구포국수 군자점,서울 광진구 군자동 467-3,37.5579786,127.0754914,광진구,gwangjin_gu
동남집 역삼점,서울 강남구 역삼동 647-6,37.5004801,127.0328944,강남구,gangnam_gu
분식저장소,서울 관악구 신림동 706-2,37.4726187,126.9182091,관악구,gwanak_gu
가우초 곱창 교대점,서울 서초구 서초동 1671-5,37.4934726,127.0154404,서초구,seocho_gu
태산에프비에스,서울 동작구 신대방동 686-48,37.4862684,126.9053069,동작구,dongjak_gu
육대장 푸줏간 이수역점,서울 동작구 사당동 89-6,37.4887688,126.9813286,동작구,dongjak_gu
한가어죽,서울 동작구 사당동 1007-13,37.4837256,126.9811384,동작구,dongjak_gu
돈맛탱,서울 관악구 신림동 1603-7,37.481128,126.9275345,관악구,gwanak_gu
비어부르스(사당역점),서울 관악구 남현동 1061-1,37.4756819,126.9808861,관악구,gwanak_gu
혼다라멘,서울 광진구 구의동 246-71,37.5377283,127.0853003,광진구,gwangjin_gu
황토방,서울 관악구 봉천동 1597-7,37.4780718,126.9527449,관악구,gwanak_gu
밥한끼,서울 관악구 봉천동 1597-9,37.4780219,126.9530268,관악구,gwanak_gu
선궁,서울 강남구 역삼동 823,37.4987003,127.0315769,강남구,gangnam_gu
포68서울대입구역본점,서울 관악구 봉천동 859-33,37.4823256,126.9528891,관악구,gwanak_gu
엘 살루드,서울 종로구 숭인동 1425,37.5729061,127.0221571,종로구,jongno_gu
진전복삼계탕 압구정 직영점,서울 강남구 신사동 578-1,37.5259382,127.0275871,강남구,gangnam_gu
이엘포레스트,서울 강남구 역삼동 832-33,37.4924086,127.0320238,강남구,gangnam_gu
샹츠마라 어린이대공원점,서울 광진구 화양동 111-130,37.546803,127.0734355,광진구,gwangjin_gu
매화식당,서울 송파구 삼전동 22-2,37.5070755,127.0924728,송파구,songpa_gu
(주)봉심컴퍼니,서울 종로구 명륜4가 70-3,37.5825826,127.0004411,종로구,jongno_gu
훌랄라치킨 행당1동점,서울 성동구 행당동 298-29,37.5597978,127.0331099,성동구,seongdong_gu
호호향,서울 송파구 잠실동 207-17,37.509704,127.0852107,송파구,songpa_gu
반기돈,서울 송파구 잠실동 183-12,37.5109289,127.0836439,송파구,songpa_gu
코끼리 김밥,서울 성동구 하왕십리동 1066,37.5685653,127.0279662,성동구,seongdong_gu
김지영전집,서울 광진구 자양동 621-52,37.534405,127.0796832,광진구,gwangjin_gu
다락,서울 성동구 홍익동 101-6,37.566582,127.0330521,성동구,seongdong_gu
성수닭꼬치,서울 성동구 성수동2가 269-163,37.5406926,127.0600147,성동구,seongdong_gu
럼프슈가 (Lump Sugar),서울 성동구 용답동 65-6,37.5649222,127.0535444,성동구,seongdong_gu
상하이,서울 성동구 행당동 286-43,37.5613049,127.0332322,성동구,seongdong_gu
김영희 강남동태찜 이수점,서울 서초구 방배동 3001-2,37.4859814,126.9830639,서초구,seocho_gu
사천마라탕 방배점,서울 서초구 방배동 440-33,37.4814495,126.9822597,서초구,seocho_gu
뚱이네마라탕,서울 동작구 신대방동 644-7,37.4879884,126.913125,동작구,dongjak_gu
태영중국요리,서울 동작구 신대방동 693-11,37.486967,126.9106226,동작구,dongjak_gu
마라영웅 사당점,서울 동작구 사당동 218,37.4868233,126.968108,동작구,dongjak_gu
잇덴굿 왕십리점,서울 성동구 행당동 192-29,37.5649229,127.0368108,성동구,seongdong_gu
알로하프룻,서울 성동구 하왕십리동 1066,37.5685653,127.0279662,성동구,seongdong_gu
남도 동백김밥 금호점,서울 성동구 금호동1가 167-49,37.556236,127.0236217,성동구,seongdong_gu
두마리찜닭 두찜 동작노량진점,서울 동작구 노량진동 117-31,37.5129112,126.9449975,동작구,dongjak_gu
두찜 동작상도점,서울 동작구 상도1동 587,37.5049387,126.9512904,동작구,dongjak_gu
두마리찜닭 두찜 (강남세곡점),서울 강남구 자곡동 658,37.4747354,127.1048177,강남구,gangnam_gu
두마리찜닭두찜용산이태원점,서울 용산구 이태원동 341-4,37.5373571,126.9883169,용산구,yongsan_gu
레츠잇치킨,서울 성동구 성수동1가 656-630,37.5458614,127.0459828,성동구,seongdong_gu
소코아 뚝섬점,서울 성동구 성수동1가 656-1015,37.5461675,127.0470664,성동구,seongdong_gu
두찜 광진 구의점,서울 광진구 구의동 222-15,37.5410475,127.0896337,광진구,gwangjin_gu
승리원,서울 성동구 성수동1가 656-435,37.5444752,127.0451408,성동구,seongdong_gu
세븐버거스 어 위크,서울 성동구 성수동1가 656-1036,37.5471144,127.0454432,성동구,seongdong_gu
두마리찜닭 두찜 한양대점,서울 성동구 행당동 39-3,37.556313,127.0410199,성동구,seongdong_gu
짬뽕위에 더 짬뽕,서울 성동구 성수동1가 668-10,37.5474358,127.0439463,성동구,seongdong_gu
도우또 성수,서울 성동구 성수동1가 668-79,37.5470208,127.0427327,성동구,seongdong_gu
풀리너마이트 성수,서울 성동구 성수동1가 685-414,37.5472057,127.0411197,성동구,seongdong_gu
에디슨바이댄 성수점,서울 성동구 성수동1가 685-431,37.5474512,127.0406287,성동구,seongdong_gu
미미사천마라탕 봉천점,서울 관악구 봉천동 16-46,37.4868074,126.9595465,관악구,gwanak_gu
두찜 서초교대점,서울 서초구 서초동 1637-1,37.4943451,127.0198414,서초구,seocho_gu
우프,서울 성동구 성수동1가 668-81,37.5469603,127.0425341,성동구,seongdong_gu
명가,서울 성동구 하왕십리동 975-36,37.5613714,127.0313548,성동구,seongdong_gu
두찜 관악신림역점,서울 관악구 신림동 1629-1,37.4791574,126.9275928,관악구,gwanak_gu
광동성,서울 영등포구 신길동 73-15,37.5122701,126.9212107,영등포구,yeongdeungpo_gu
마라에 반하다,서울 관악구 신림동 1664-28,37.481173,126.9014165,관악구,gwanak_gu
푸드카페(김밥천국),서울 성동구 성수동1가 656-940,37.5469641,127.0444086,성동구,seongdong_gu
쎄시봉in성수,서울 성동구 성수동1가 656-1069,37.5471846,127.0448201,성동구,seongdong_gu
두찜 서대문홍제점,서울 서대문구 홍은동 36-10,37.5948336,126.9460215,서대문구,seodaemun_gu
차이훙,서울 영등포구 문래동4가 7-2,37.5160651,126.8907954,영등포구,yeongdeungpo_gu
연변메밀냉면,서울 영등포구 대림동 1050-1,37.4930139,126.8974029,영등포구,yeongdeungpo_gu
내고향초두부,서울 영등포구 대림동 804-28,37.4947028,126.8963602,영등포구,yeongdeungpo_gu
샐러링 성수본점,서울 성동구 성수동2가 314-13,37.5440369,127.0536291,성동구,seongdong_gu
일월수제만두,서울 성동구 성수동2가 564-1,37.5373054,127.054762,성동구,seongdong_gu
두찜-반포잠원점,서울 서초구 반포동 724-14,37.5082424,127.0215918,서초구,seocho_gu
두찜 강남대치점,서울 강남구 대치동 935-4,37.4982273,127.0545679,강남구,gangnam_gu
파머스포케 뚝섬역점,서울 성동구 성수동1가 8-33,37.546728,127.0469651,성동구,seongdong_gu
도쎄멕시칸,서울 성동구 성수동1가 656-3,37.5426627,127.0451987,성동구,seongdong_gu
주식회사 엘더그룹,서울 성동구 성수동1가 668-124,37.5462759,127.0430168,성동구,seongdong_gu
샌드보이,서울 성동구 성수동1가 656-805,37.5485964,127.0456069,성동구,seongdong_gu
이흥부 족발,서울 성동구 성수동1가 13-144,37.5487515,127.0483332,성동구,seongdong_gu
그릭커 성수,서울 성동구 성수동1가 656-417,37.5511804,127.0472794,성동구,seongdong_gu
몽고 양다리 양갈비,서울 영등포구 대림동 1035-13,37.4916675,126.9007147,영등포구,yeongdeungpo_gu
포케올데이 성수점,서울 성동구 성수동2가 328-6,37.5400488,127.0562641,성동구,seongdong_gu
에이트,서울 성동구 성수동2가 273-13,37.5425289,127.0592605,성동구,seongdong_gu
청년다방 건대점,서울 광진구 자양동 9-3,37.5403751,127.06707,광진구,gwangjin_gu
인생 차이나 1980,서울 강서구 화곡동 1111-4,37.5540286,126.8517152,강서구,gangseo_gu
소평루,서울 강서구 마곡동 784-4,37.565505,126.8400468,강서구,gangseo_gu
화룡각,서울 강서구 등촌동 691-1,37.5638693,126.845799,강서구,gangseo_gu
아토키토,서울 성동구 성수동2가 280-21,37.546794,127.0633158,성동구,seongdong_gu
밥한민국,서울 강남구 논현동 148-13,37.5109678,127.0271999,강남구,gangnam_gu
한양꽃삼겹&곱창명가,서울 강남구 논현동 148-13,37.5109678,127.0271999,강남구,gangnam_gu
1982 한인타운 냉면&곰탕,서울 강남구 논현동 148-13,37.5109678,127.0271999,강남구,gangnam_gu
남라고항,서울 관악구 봉천동 30-3,37.4839707,126.9555592,관악구,gwanak_gu
마라영웅,서울 강서구 화곡동 1015-27,37.5449098,126.8349075,강서구,gangseo_gu
베이지크,서울 광진구 자양동 54-5,37.5354801,127.0634713,광진구,gwangjin_gu
알리타 유기농죽,서울 광진구 자양동 553-438,37.5356746,127.0676264,광진구,gwangjin_gu
천미식당,서울 광진구 자양동 829,37.533088,127.0668267,광진구,gwangjin_gu
술이 있는 맛있는밥집,서울 성동구 마장동 335-4,37.5633824,127.0415154,성동구,seongdong_gu
락앤웍,서울 양천구 목동 923-12,37.5279125,126.8715027,양천구,yangcheon_gu
금문도,서울 송파구 석촌동 255-4,37.4999707,127.1044599,송파구,songpa_gu
중국 미식성,서울 송파구 장지동 881-5,37.4812143,127.1428973,송파구,songpa_gu
한낮의밤,서울 성동구 성수동2가 566-10,37.5371748,127.0556416,성동구,seongdong_gu
신(辛) 마라명가,서울 송파구 문정동 67-9,37.4838,127.126117,송파구,songpa_gu
반스런,서울 성동구 상왕십리동 811,37.5693623,127.0247156,성동구,seongdong_gu
까치산 냉면&김치찌개 본점,서울 강서구 화곡동 347-8,37.5323278,126.8438456,강서구,gangseo_gu
반이학생마라탕마라반,서울 서대문구 창천동 33-46,37.5577487,126.9364978,서대문구,seodaemun_gu
다복향 마라탕,서울 송파구 송파동 97-53,37.5015089,127.1122743,송파구,songpa_gu
탕화쿵푸 마라탕,서울 송파구 문정동 644-2,37.4855846,127.1225635,송파구,songpa_gu
탕라쿵부  마라탕,서울 송파구 마천동 190-35,37.4970983,127.1530872,송파구,songpa_gu
본능족으로 족발보쌈,서울 광진구 군자동 471-1,37.5572887,127.0767871,광진구,gwangjin_gu
백미향,서울 마포구 합정동 371-5,37.5473397,126.9134184,마포구,mapo_gu
주식회사 오픈팩토리,서울 관악구 봉천동 933-29,37.4842843,126.9401854,관악구,gwanak_gu
미소샌드위치&샐러드,서울 성동구 용답동 57-18,37.5640995,127.052635,성동구,seongdong_gu
집밥쭈선생,서울 성동구 용답동 50-2,37.5639437,127.0523891,성동구,seongdong_gu
족팔계,서울 성동구 용답동 14-20,37.5637963,127.0530996,성동구,seongdong_gu
쪽선생,서울 성동구 용답동 12-2,37.5640778,127.0543503,성동구,seongdong_gu
산동성 중화요리,서울 양천구 신정동 202-7,37.5079834,126.8644335,양천구,yangcheon_gu
웨이웨이 핫도그,서울 양천구 신월동 237-13,37.5273607,126.839788,양천구,yangcheon_gu
마라공방 아현점,서울 서대문구 북아현동 154-6,37.5575476,126.9550263,서대문구,seodaemun_gu
슬로우레빗,서울 성동구 용답동 70-9,37.5655981,127.0531454,성동구,seongdong_gu
한우공감,서울 성동구 용답동 56-11,37.5643334,127.0523211,성동구,seongdong_gu
지앤지푸드,서울 성동구 하왕십리동 1066,37.5685653,127.0279662,성동구,seongdong_gu
돌매등,서울 성동구 도선동 69,37.5643927,127.0349365,성동구,seongdong_gu
라피드몽,서울 성동구 금호동4가 1305-1,37.5456898,127.0157779,성동구,seongdong_gu
달콤테이블,서울 성동구 옥수동 250-7,37.5411484,127.0146162,성동구,seongdong_gu
소림마라 성동점,서울 성동구 옥수동 450-21,37.5409004,127.0109326,성동구,seongdong_gu
두찜 건대점,서울 광진구 자양동 7-13,37.5400634,127.0685295,광진구,gwangjin_gu
공주닭발 용산점,서울 용산구 한강로2가 71,37.5302296,126.9717159,용산구,yongsan_gu
문가네,서울 종로구 창신동 330-59,37.57211,127.0143008,종로구,jongno_gu
동대문일품짜장면,서울 종로구 창신동 438-16,37.5703334,127.0103766,종로구,jongno_gu
찌개랑 고기랑,서울 종로구 창신동 339-1,37.5719806,127.0137426,종로구,jongno_gu
면을품은오구닭,서울 종로구 창신동 339-1,37.5719806,127.0137426,종로구,jongno_gu
레인보우포차 왕십리,서울 성동구 행당동 292-34,37.5607021,127.0330776,성동구,seongdong_gu
주식회사 금은보화,서울 강남구 역삼동 823,37.4987003,127.0315769,강남구,gangnam_gu
띵호와,서울 용산구 한강로1가 275,37.5352752,126.9731759,용산구,yongsan_gu
딘딘향마라탕&마라샹궈 논현점,서울 강남구 논현동 221-7,37.5097158,127.0335241,강남구,gangnam_gu
천린,서울 강남구 논현동 135-5,37.5123923,127.0281017,강남구,gangnam_gu
마라의신 대치점,서울 강남구 대치동 909-8,37.5008355,127.0536213,강남구,gangnam_gu
마라스타(마라STAR),서울 성동구 사근동 210-19,37.560965,127.0464309,성동구,seongdong_gu
카츠쇼쿠도우 영등포구청점,서울 영등포구 당산동2가 165,37.5224833,126.8937056,영등포구,yeongdeungpo_gu
진전복삼계탕 강남구청점,서울 강남구 논현동 243-5,37.5158246,127.039781,강남구,gangnam_gu
막주고퍼주고,서울 성동구 용답동 54-1,37.5641668,127.0521098,성동구,seongdong_gu